BOP_ID	ATS_CODE	BOP_NAME	DOE_NAME	NYCOD_NAME	HEATHER_DID_IT_FIRST	TYPE_OF_SCHOOL	ADDRESS_1	NEIGHBORHOOD	CITY	STATE	ZIP	COMMUNITY_BOARD	COUNCIL_DISTRICT	PRINCIPAL	PRINCIPAL_PHONE
5737437f117a5467af67970f	75K371	371K Lillian Rashkis	P.S. 371 - Lillian L. Rashkis	P.S. 371 - Lillian L. Rashkis	yes	NYC Public	355 37 STREET	Sunset Park West	BROOKLYN	NY	11232	307	38	JOAN ANTONELLI	718-788-7608
5834ada8e5b1443821082af4	32K554	ALL CITY LEADERSHIP SECONDARY SCHOOL	All City Leadership Secondary School	All City Leadership Secondary School	yes	NYC Public	321 PALMETTO STREET	Bushwick North	BROOKLYN	NY	11237	304	37	ELVIS ESTEVEZ	718-246-6500
586d4b89195c49c15ebeecff	30Q235	Academy for New Americans	Academy for New Americans	Academy for New Americans	no	NYC Public	30-14 30 STREET	Old Astoria	QUEENS	NY	11102	401	22	Betty Cartagena	718-956-4140
59d29ad3d9e02459790582d7	13K492	Academy of Arts and Letters	Academy of Arts and Letters	Academy of Arts and Letters	yes	NYC Public	225 ADELPHI STREET	Fort Greene	BROOKLYN	NY	11205	302	35	John Oreilly	718-222-1605
5891f39958dc86ad76329ee1	12X341	Accion Academy	Accion Academy	Accion Academy	yes	NYC Public	1825 PROSPECT AVENUE	East Tremont	BRONX	NY	10457	206	17	Rajendra Jimenez Jailall	718-294-0514
5737437f117a5467af679707		American Museum of Natural History			unsure										
582c6e58c9c665590e1026c2		Apex for Youth, Inc.			unsure										
5877ab5bd1b4f2e23897242c		Avenues The World School			unsure										
5834ad6ee5b1443821082af2	23K664	BROOKLYN ENVIRONMENTAL EXPLORATION SCHOOL (BEES)	Brooklyn Environmental Exploration School (BEES)	Brooklyn Environmental Exploration School (BEES)	no	NYC Public	251 MAC DOUGAL STREET	Ocean Hill	BROOKLYN	NY	11233	316	37	Craig Garber	718-453-3039
57d426f3617bf9c536f37caa	01M696	Bard High School Early College	Bard High School Early College	Bard High School Early College	no	NYC Public	525 EAST HOUSTON STREET	Lower East Side	MANHATTAN	NY	10002	103	2	MICHAEL LERNER	212-995-8479
589debef6265cd7c5718e878		Barnard College			unsure										
59b98656afdf4c6a8fa53425	21K098	Bay Academy	I.S. 98 Bay Academy	I.S. 98 Bay Academy	yes	NYC Public	1401 EMMONS AVENUE	Sheepshead Bay-Gerritsen Beach-Manhattan Beach	BROOKLYN	NY	11235	315	48	MARIA TIMO	718-891-9005
571f6f3181ab586140097247		Billion Oyster Project			unsure										
58c17c6b5d59018870f3b0d9		BioBus			unsure										
57d431b7617bf9c536f37d3b	08X537	Bronx Arena High School	Bronx Arena High School	Bronx Haven High School	no	NYC Public	333 EAST 151 STREET	Melrose South-Mott Haven North	BRONX	NY	10451	201	17	Jazmin Rivera-Polanco	718-292-3638
5737437f117a5467af67970b	09X260	Bronx Center for Science and Mathematics	Bronx Center for Science and Mathematics	Manhattan Center for Science and Mathematics	no	NYC Public	260 PLEASANT AVENUE	East Harlem North	MANHATTAN	NY	10029	111	8	JOSE JIMENEZ	212-876-4639
57d43130617bf9c536f37d33	10X351	Bronx Collaborative High School	Bronx Collaborative High School	Gotham Collaborative High School	no	NYC Public	1980 LAFAYETTE AVENUE	Soundview-Castle Hill-Clason Point-Harding Park	BRONX	NY	10473	209	18	David Liu	718-597-1587
57f7bf1da0481a080d096df1	08X375	Bronx Math Prep			unsure										
5737437f117a5467af679708		Brooklyn Bridge Park			unsure										
5737437f117a5467af679709		Brooklyn Friends			unsure										
57f7bf0107232ef20c7310e1	15K146	Brooklyn New School / PS 146	The Brooklyn New School, P.S. 146	The Brooklyn New School, P.S. 146	yes	NYC Public	610 HENRY STREET	Carroll Gardens-Columbia Street-Red Hook	BROOKLYN	NY	11231	306	39	ANNA ALLANBROOK	718-923-4750
57f7c4818fc301470d44407a	15K146	Brooklyn New School /PS 146	The Brooklyn New School, P.S. 146	The Brooklyn New School, P.S. 146	yes	NYC Public	610 HENRY STREET	Carroll Gardens-Columbia Street-Red Hook	BROOKLYN	NY	11231	306	39	ANNA ALLANBROOK	718-923-4750
5737437f117a5467af67970a	15K448	Brooklyn School for Collaborative Studies, 448	Brooklyn Secondary School for Collaborative Studies	Brooklyn Secondary School for Collaborative Studie	yes	NYC Public	610 HENRY STREET	Carroll Gardens-Columbia Street-Red Hook	BROOKLYN	NY	11231	306	39	Priscilla Chan	718-923-4700
59a5c93ecf6a2a0607619ca7	84K758	Brooklyn Urban Garden Charter School	Brooklyn Ascend Charter School	Brooklyn Ascend Charter School	no	Charter	205 Rockaway Parkway	Brownsville	BROOKLYN	NY	11212	317	41	Janna Genzlinger/Johana Andujar	718-240-9162
58dd098fc6f0027a0e28bce6		CUNY Brooklyn College			unsure										
5737437f117a5467af679712		CUNY Queens College			unsure										
599253065025d77159ad7693	11X127	Castle Hill MIddle School 127			unsure										
5737437f117a5467af67970c	04M497	Central Park East 2	Central Park East I	Central Park East I	no	NYC Public	1573 MADISON AVENUE	East Harlem South	MANHATTAN	NY	10029	111	8	Feldberg, Gabriel	212-860-5821
5891edb858dc86ad76329ebc		City Parks Foundation			unsure										
59df6b697ab0680f7bf8b047	02M560	City-As-School			unsure										
57796ba4142d10a9264d6842		Clarkson University			unsure										
593c3d919114f10f5fdb3402		Cold Spring Harbor High School			unsure										
5737437f117a5467af67970d		Columbia University, Lamont Doherty Earth Observatory			unsure										
5737437f117a5467af67970e	84K789	Compass Charter School	Compass Charter School	Roads Charter School I	no	Charter	300 ADELPHI STREET	Fort Greene	BROOKLYN	NY	11205	302	35	Brooke Peters	212-437-8372
59dfade77ab0680f7bf8c474		Convent of the Sacred Heart			unsure										
59fa054660ad0c0faf09f93a		Convent of the Sacred Heart			unsure										
58790415cc0ff6e83807f8ba		Cooke Center Academy			unsure										
58508773f232b5177eb8e4ec		Cornell University			unsure										
57d4202af4c114790ec33518		Cranbury School			unsure										
5737437f117a5467af679710		Crave Fishbar			unsure										
5737437f117a5467af679711		Cultural Research Divers			unsure										
5737437f117a5467af679713	31R450	Curtis High School	Curtis High School	Curtis High School	no	NYC Public	105 HAMILTON AVENUE	West New Brighton-New Brighton-St. George	STATEN ISLAND	NY	10301	501	49	Gregory Jaenicke	718-390-1800
5737437f117a5467af679714		DCTV			unsure										
59c9086be3e6892d8be65d58		DNA Learning Center			unsure										
5a29e15b1b84717c22f94415	10X440	DeWitt Clinton High School	DeWitt Clinton High School	DeWitt Clinton High School	no	NYC Public	100 WEST MOSHOLU PARKWAY SOUTH	Van Cortlandt Village	BRONX	NY	10468	207	11	Pierre Orbe	718-543-1000
5891c9f958dc86ad76329e84		District 75 STEM Department			unsure										
5833503c262e956b0eb38a4b	20K062	Ditmas IS62			unsure										
5737437f117a5467af679717	13K265	Dr. Susan S. McKinney Secondary School of the Arts (13K265)	Dr. Susan S. McKinney Secondary School of the Arts	Dr. Susan S. McKinney Secondary School of the Arts	yes	NYC Public	101 PARK AVENUE	Fort Greene	BROOKLYN	NY	11205	302	35	Michael Walker	718-834-6760
5925a82a551848fd0ebcc6a9	12X271	East Bronx Academy for the Future	West Bronx Academy for the Future	West Bronx Academy for the Future	no	NYC Public	500 EAST FORDHAM ROAD	Belmont	BRONX	NY	10458	206	15	WILPER MORALES	718-563-7139
5737437f117a5467af679715		Edible Manhattan			unsure										
5737437f117a5467af679716		Elmont Memorial High School			unsure										
587cc7ffcc0ff6e83807f8e5		Eltingville Lutheran School			unsure										
588bfcc558dc86ad76329d98		Emerald Coastkeeper			unsure										
5737437f117a5467af67971a		Empire Dragon Boat			unsure										
582de80a22c56c842c9ffc7e		Ethical Culture Fieldston School			unsure										
58861040cc0ff6e83807f9e0		Ethical Culture Fieldston School			unsure										
571e1dfe7ff397655dbdc0d6		Fearless			unsure										
58991cd35841178c42e47fbf	22K207	Fillmore Academy @ PS 207	P.S. 207 Elizabeth G. Leary		unsure										
58e8da9dec3f74820e73801b		Fire Lotus Temple			unsure										
58eea912e23a596b0e4e56f5		Fire Lotus Temple			unsure										
5737437f117a5467af679718	25Q263	Flushing International High School	Bronx International High School	Bronx International High School	no	NYC Public	1110 BOSTON ROAD	Morrisania-Melrose	BRONX	NY	10456	203	16	Socrates Ortiz	718-620-1053
5912166991cb1f850e448dbc	28Q440	Forest Hills High School	Forest Hills High School	Forest Hills High School	no	NYC Public	67-01 110 STREET	Forest Hills	QUEENS	NY	11375	406	29	BENJAMIN SHERMAN	718-268-3137
5737437f117a5467af679719	20K490	Fort Hamilton High School	Hamilton Heights School	Hamilton Heights School	no	NYC Public	1750 AMSTERDAM AVENUE	Hamilton Heights	MANHATTAN	NY	10031	109	7	DEIRDRE BUDD	212-862-9940
594fee704b16da37d15a040c	20K505	Franklin Delano Roosevelt High School	Eleanor Roosevelt High School	Eleanor Roosevelt High School	no	NYC Public	411 EAST 76 STREET	Lenox Hill-Roosevelt Island	MANHATTAN	NY	10021	108	5	DIMITRI SALIANI	212-772-1220
57f7be9f7a699f1e0a48aec3		Friends Academy			unsure										
57f7bea07a699f1e0a48aec5		Friends Academy			unsure										
587821c0cc0ff6e83807f88a		Friends of Bushwick Park			unsure										
58e5152eec3f74820e7376b2		Gaylen Moore Program Evaluation Services			unsure										
5a31ef35c6e9f20f9162e2c1	13K605	George Westinghouse High School			unsure										
5903948cb1542b585aa6c071		Girl Scouts NY			unsure										
586bb6c1195c49c15ebeeca9	27Q333	Goldie Maple Academy	Goldie Maple Academy	Goldie Maple Academy	no	NYC Public	3-65 BEACH 56 STREET	Hammels-Arverne-Edgemere	QUEENS	NY	11692	414	31	ANGELA LOGAN-SMITH	718-945-3300
5737437f117a5467af67971b		Good Shepherd Services			unsure										
59b884ff2a8c047c0dd018bf		Grace Church School			unsure										
57d426de617bf9c536f37ca7		Greene Hill School			unsure										
58bd96529e4a962862ed1e69	24Q485	Grover Cleveland High School	Grover Cleveland High School	Grover Cleveland High School	no	NYC Public	21-27 HIMROD STREET	Ridgewood	QUEENS	NY	11385	405	30	Denise Vittor	718-381-9600
58bd84329e4a962862ed1e0f		Haitian-Americans United for Progress			unsure										
57640ed88a3ad7c61882da7a		Halawai			unsure										
59775fa4db83c37a9842aae4	06M209	Hamilton Grange Middle School	Hamilton Grange Middle School	Hamilton Grange Middle School	no	NYC Public	500 WEST 138 STREET	Manhattanville	MANHATTAN	NY	10031	109	7	BENJAMIN LEV	212-281-6184
5737437f117a5467af67971c		Harbor Estuary Program			unsure										
57f7c4f08fc301470d444080		HarborLAB			unsure										
5737437f117a5467af679724	02M534	Harvest Collegiate High School	Harvest Collegiate High School	Harvest Collegiate High School	no	NYC Public	34 WEST 14 STREET	West Village	MANHATTAN	NY	10011	102	3	Catherine Burch	212-242-3384
5737437f117a5467af679728		Hastings High School			unsure										
5737437f117a5467af67971e		Home Schoolers of Staten Island			unsure										
5911d9c891cb1f850e448da8		Hudson Montessori			unsure										
59ea2b1597c577235a4959c9		Hudson River Community Sailing			unsure										
5737437f117a5467af67971f		Hudson River Park			unsure										
5737437f117a5467af679720		Human Impacts Institute			unsure										
5737437f117a5467af679721	30Q291	Hunters Point Community Middle School	Hunters Point Community Middle School	Hunters Point Community Middle School	no	NYC Public	1-50 51ST AVENUE	Hunters Point-Sunnyside-West Maspeth	QUEENS	NY	11101	402	26	SARAH GOODMAN	718-609-3300
5834ac30e5b1443821082aec	30Q230	I.S. 230	I.S. 230	I.S. 230	no	NYC Public	73-10 34 AVENUE	Jackson Heights	JACKSON HEIGHTS	NY	11372	403	25	Ronald Zirin	718-335-7648
590203452272257a0e858bfd	25Q025	I.S. 25 ADRIEN BLOCK	I.S. 025 Adrien Block	I.S. 025 Adrien Block	no	NYC Public	34-65 192 STREET	Auburndale	QUEENS	NY	11358	411	19	MARY ELLEN BEIRNE	718-961-3480
590203e22272257a0e858c01	25Q025	I.S. 25 ADRIEN BLOCK	I.S. 025 Adrien Block	I.S. 025 Adrien Block	no	NYC Public	34-65 192 STREET	Auburndale	QUEENS	NY	11358	411	19	MARY ELLEN BEIRNE	718-961-3480
5878f1fbcc0ff6e83807f897	14K318	I.S. 318 Eugenio Maria de Hostos	I.S. 318 Eugenio Maria De Hostos	I.S. 318 Eugenio Maria De Hostos	no	NYC Public	101 WALTON STREET	Williamsburg	BROOKLYN	NY	11206	301	33	Leander Windley	718-782-0589
5901fb722272257a0e858bf7	31R049	I.S. 49 BERTA A. DREYFUS	I.S. 49 Berta A. Dreyfus	I.S. 49 Berta A. Dreyfus	no	NYC Public	101 WARREN STREET	Stapleton-Rosebank	STATEN ISLAND	NY	10304	501	49	James De Francesco	718-727-6040
5834abcce5b1443821082aeb	24Q005	I.S. 5 THE WALTER CROWLEY SCHOOL	I.S. 5 - The Walter Crowley Intermediate School	I.S. 5 - The Walter Crowley Intermediate School	no	NYC Public	50-40 JACOBUS STREET	Elmhurst-Maspeth	QUEENS	NY	11373	404	25	Kelly Nepogoda	718-205-6788
5737437f117a5467af679722		IGY Marinas			unsure										
5737437f117a5467af679723		IKEA Brooklyn			unsure										
5834ab46e5b1443821082aea	30Q126	IS 126 ALBERT SHANKER SCHOOL FOR VISUAL AND PERFORMING ARTS	Albert Shanker School for Visual and Performing Arts	Albert Shanker School for Visual and Performing Ar	no	NYC Public	31-51 21 STREET	Astoria	QUEENS	NY	11106	401	22	ALEXANDER ANGUEIRA	718-274-8316
582f866a47f5770b28c9c6b6	30Q126	IS 126Q			unsure										
582f867047f5770b28c9c6b8	30Q126	IS 126Q			unsure										
5737437f117a5467af679726	30Q141	IS 141 The Steinway School	I.S. 141 The Steinway	I.S. 141 The Steinway	no	NYC Public	37-11 21 AVENUE	Steinway	QUEENS	NY	11105	401	22	MIRANDA PAVLOU	718-278-6403
5737437f117a5467af679727	30Q145	IS 145 Joseph Pulitzer	I.S. 145 Joseph Pulitzer	I.S. 145 Joseph Pulitzer	no	NYC Public	33-34 80 STREET	Jackson Heights	QUEENS	NY	11372	403	25	IVAN RODRIGUEZ	718-457-1242
58786e8ecc0ff6e83807f890	19K007	IS 171 Abraham Lincoln	P.S. 007 Abraham Lincoln	P.S. 007 Abraham Lincoln	no	NYC Public	858 JAMAICA AVENUE	Cypress Hills-City Line	BROOKLYN	NY	11208	305	37	Carolyn Noel	718-647-3600
5737437f117a5467af679729	31R024	IS 24 Myra Barnes	I.S. 024 Myra S. Barnes	I.S. 024 Myra S. Barnes	no	NYC Public	225 CLEVELAND AVENUE	Great Kills	STATEN ISLAND	NY	10308	503	51	LENNY SANTAMARIA	718-982-4700
5737437f117a5467af67972a	21K281	IS 281 Joseph Cavallaro	I.S. 281 Joseph B Cavallaro	I.S. 281 Joseph B Cavallaro	yes	NYC Public	8787 24 AVENUE	Bensonhurst East	BROOKLYN	NY	11214	311	47	Maria Bender	718-996-6706
5876643bd1b4f2e2389723cc	31R051	IS 51 Edwin Markham	I.S. 051 Edwin Markham	I.S. 051 Edwin Markham	no	NYC Public	20 HOUSTON STREET	Port Richmond	STATEN ISLAND	NY	10302	501	50	Nicholas Mele	718-981-0502
5737437f117a5467af67972e	18K068	IS 68 Isaac Bildersee	I.S. 068 Isaac Bildersee	I.S. 068 Isaac Bildersee	no	NYC Public	956 EAST 82 STREET	Canarsie	BROOKLYN	NY	11236	318	46	Merve Williams	718-241-4800
5893e1db58dc86ad76329f7e	02M407	Institute for Collaborative Education	Institute for Collaborative Education	Institute for Collaborative Education	no	NYC Public	345 EAST 15TH STREET	Gramercy	MANHATTAN	NY	10003	106	2	Peter Karp	212-475-7972
589a05abe417aa3a7b906923	24Q530	International High School at LaGuardia C.C.	International High School at LaGuardia Community College	International High School at LaGuardia Community C	no	NYC Public	45-35 VAN DAM STREET	Hunters Point-Sunnyside-West Maspeth	QUEENS	NY	11101	402	26	Jaclyn Valane	718-392-3433
5737437f117a5467af679725	10X342	International School for Liberal Art	International School for Liberal Arts	International School for Liberal Arts	yes	NYC Public	2780 RESERVOIR AVENUE	Van Cortlandt Village	BRONX	NY	10468	207	11	Francine Cruz	718-329-8570
59c9072ae3e6892d8be65d54	84M478	Inwood Academy for Leadership Charter School	Inwood Academy for Leadership Charter School	Inwood Academy for Leadership Charter School	no	Charter	108 COOPER STREET	Marble Hill-Inwood	MANHATTAN	NY	10034	112	10	Christina Reyes	646-665-5570
59c92001e3e6892d8be65d61	84M478	Inwood Academy for Leadership Charter School High School	Inwood Academy for Leadership Charter School	Inwood Academy for Leadership Charter School	no	Charter	108 COOPER STREET	Marble Hill-Inwood	MANHATTAN	NY	10034	112	10	Christina Reyes	646-665-5570
5834ad34e5b1443821082af1	25Q185	J.H.S. 185 EDWARD BLEEKER	J.H.S. 185 Edward Bleeker	J.H.S. 185 Edward Bleeker	no	NYC Public	147-26 25 DRIVE	Murray Hill	QUEENS	NY	11354	407	19	Theresa Mshar	718-445-3232
5834aab2e5b1443821082ae8	20K220	J.H.S. 220 JOHN J. PERSHING	J.H.S. 220 John J. Pershing	J.H.S. 220 John J. Pershing	yes	NYC Public	4812 9TH AVENUE	Sunset Park East	BROOKLYN	NY	11220	312	38	SHELDON DEMPSTER	718-633-8200
5834aafbe5b1443821082ae9	22K234	J.H.S. 234 ARTHUR W. CUNNINGHAM	J.H.S. 234 Arthur W. Cunningham	J.H.S. 234 Arthur W. Cunningham	yes	NYC Public	1875 EAST 17 STREET	Madison	BROOKLYN	NY	11229	315	48	SUSAN SCHAEFFER	718-645-1334
58f1715be23a596b0e4e5735	75X754	JM Rapport School for Career Development 754x	J. M. Rapport School Career Development	J. M. Rapport School Career Development	yes	NYC Public	470 JACKSON AVENUE	Mott Haven-Port Morris	BRONX	NY	10455	201	8	DANIEL HOEHN	718-993-5581
59f0996e6cbbb80f9b05ed48	19K218	James P Sinnott, jhs 218			unsure										
5989df41d317056a6f438bb0	13K270	Johann Dekalb School/PS270			unsure										
5737437f117a5467af67972b	21K540	John Dewey High School	John Dewey High School	John Dewey High School	no	NYC Public	50 AVENUE X	Gravesend	BROOKLYN	NY	11223	313	47	CONNIE HAMILTON	718-373-6400
5737437f117a5467af67972c	14K126	John Ericsson Middle School 126, Magnet School of environmental engineering			unsure										
5737437f117a5467af67972d	12X316	KAPPA III (12x316)			unsure										
5737437f117a5467af67972f		Kings Plaza Marina			unsure										
5737437f117a5467af679731		LIC Community Boathouse			unsure										
5737437f117a5467af679730		La Marina Restaurant			unsure										
5737437f117a5467af679732		Little Red School House & Elisabeth Irwin High School			unsure										
5737437f117a5467af679733		Locust Point Yacht Club			unsure										
5737437f117a5467af679734		Lower East Side Ecology Center			unsure										
5834ae96e5b1443821082af7	02M131	M.S. 131	M.S. 131	M.S. 131	no	NYC Public	100 HESTER STREET	Chinatown	MANHATTAN	NY	10002	103	1	PHYLLIS TAM	212-219-1204
5834ae5ae5b1443821082af6	06M328	M.S. 328 MANHATTAN MIDDLE SCHOOL FOR SCIENTIFIC INQUIRY			unsure										
5924d6a6561569c017258cab	17K340	M.S. 340-North Star Academy			unsure										
5877e666d1b4f2e23897246f	02M104	MS 104 Simon Baruch	J.H.S. 104 Simon Baruch	J.H.S. 104 Simon Baruch	no	NYC Public	330 EAST 21 STREET	Gramercy	MANHATTAN	NY	10010	106	2	Rocco Macri	212-674-4545
5737437f117a5467af67973d	02M126	MS 126 Jacob Riis			unsure										
5737437f117a5467af67973c	01M188	MS 188 The Island School	P.S. 188 The Island School	P.S. 188 The Island School	no	NYC Public	442 EAST HOUSTON STREET	Lower East Side	NEW YORK	NY	10002	103	2	Suany Ramos	212-677-5710
5737437f117a5467af67973e	10X244	MS 244 New School for Leadership and Journalism	The New School for Leadership and Journalism	The New School for Leadership and Journalism	no	NYC Public	120 WEST 231 STREET	Van Cortlandt Village	BRONX	NY	10463	208	14	Eduardo Mora	718-601-2869
59e131ce7ab0680f7bf8db52	03M245	MS 245 The Computer School	M.S. M245 The Computer School	M.S. M245 The Computer School	no	NYC Public	100 WEST 77 STREET	Upper West Side	MANHATTAN	NY	10024	107	6	HENRY ZYMECK	917-441-0873
5737437f117a5467af67973f	13K266	MS 266 Park Place Community School	M.S. K266 - Park Place Community Middle School	M.S. K266 - Park Place Community Middle School	no	NYC Public	62 PARK PLACE	Park Slope-Gowanus	BROOKLYN	NY	11217	306	39	Glenda Esperance	718-245-8766
5737437f117a5467af679740	06M324	MS 324 Patria Mirabal	M.S. 324 - Patria Mirabal	M.S. 324 - Patria Mirabal	no	NYC Public	21 JUMEL PLACE	Washington Heights South	MANHATTAN	NY	10032	112	10	CARLOS GUZMAN	212-923-4057
5737437f117a5467af679741	10X390	MS 390	M.S. 390	M.S. 390	yes	NYC Public	1930 ANDREWS AVENUE	University Heights-Morris Heights	BRONX	NY	10453	205	14	ROBERT MERCEDES	718-583-5501
5834ae19e5b1443821082af5	10X045	MS 45 THOMAS C. GIORDANO			unsure										
5737437f117a5467af679742	15K051	MS 51			unsure										
57f7b4b119cc1edc3249efbb	15K839	MS 839	M.S. 839	M.S. 839	yes	NYC Public	713 CATON AVENUE	Windsor Terrace	BROOKLYN	NY	11218	307	39	MICHAEL PERLBERG	718-686-2730
57f7b4b319cc1edc3249efbd	15K839	MS 839	M.S. 839	M.S. 839	yes	NYC Public	713 CATON AVENUE	Windsor Terrace	BROOKLYN	NY	11218	307	39	MICHAEL PERLBERG	718-686-2730
5737437f117a5467af679743	15K088	MS 88 The Peter Rouget School			unsure										
5737437f117a5467af679746	06M319	MS319/FRIENDS OF SHERMAN CREEK/CHILDRENS AID SOCIETY			unsure										
5737437f117a5467af679744	13K008	MS8 The Robert Fulton School			unsure										
57f7b4e519cc1edc3249efc1	15K839	MS839	M.S. 839	M.S. 839	yes	NYC Public	713 CATON AVENUE	Windsor Terrace	BROOKLYN	NY	11218	307	39	MICHAEL PERLBERG	718-686-2730
595e6b99037942769ecd2875	04M435	Manhattan Center for Science and Mathematics	Manhattan Center for Science and Mathematics	Manhattan Center for Science and Mathematics	no	NYC Public	260 PLEASANT AVENUE	East Harlem North	MANHATTAN	NY	10029	111	8	JOSE JIMENEZ	212-876-4639
5737437f117a5467af679735		Manhattan Kayak Company			unsure										
5737437f117a5467af679736		Marina 59			unsure										
59df9ae77ab0680f7bf8ba17		Marine Education Center			unsure										
5737437f117a5467af679737	31R063	Marsh Avenue Expeditionary Learning School	Kurt Hahn Expeditionary Learning School	Kurt Hahn Expeditionary Learning School	no	NYC Public	5800 TILDEN AVENUE	Rugby-Remsen Village	BROOKLYN	NY	11203	317	45	Veronica Coleman Xavier	718-629-1204
5737437f117a5467af67973a	13K265	McKinney Secondary School of the Arts	Dr. Susan S. McKinney Secondary School of the Arts	Dr. Susan S. McKinney Secondary School of the Arts	yes	NYC Public	101 PARK AVENUE	Fort Greene	BROOKLYN	NY	11205	302	35	Michael Walker	718-834-6760
58dbeca6c6f0027a0e28bc58	28Q167	Metropolitan Expeditionary Learning School (MELS)	Metropolitan Expeditionary Learning School	Metropolitan Expeditionary Learning School	no	NYC Public	91-30 METROPOLITAN AVENUE	Forest Hills	QUEENS	NY	11375	406	29	DAMON MCCORD	718-286-3500
5a3139108330855d15a505f1	12X521	Metropolitan Soundview High School	The Metropolitan Soundview High School	The Metropolitan Soundview High School	no	NYC Public	1300 BOYNTON AVENUE	West Farms-Bronx River	BRONX	NY	10472	209	18	Emarilix Lopez	718-860-8240
5737437f117a5467af679738		Miller's Launch			unsure										
5737437f117a5467af679739		Monsignor McClancy Memorial High School			unsure										
5737437f117a5467af67973b	23K522	Mott Hall IV	Mott Hall V	Mott Hall V	no	NYC Public	1551 EAST 172ND STREET	West Farms-Bronx River	BRONX	NY	10472	209	18	PETER OROSZLANY	718-620-8160
57b722cec6f128700eb3671b		N6 Pier / Williamsburg			unsure										
5737437f117a5467af67974d		NY State Dept. of Environmental Conservation			unsure										
5a0c6f181101f50f69a986ac		NY Sun Works			unsure										
5737437f117a5467af67974e	02M376	NYC I School	NYC iSchool	NYC iSchool	no	NYC Public	131 AVENUE OF THE AMERICAS	SoHo-TriBeCa-Civic Center-Little Italy	MANHATTAN	NY	10013	102	3	Isora Bailey	917-237-7300
5737437f117a5467af67974f	02M312	NYC Lab School for Collaborative Studies	New York City Lab Middle School for Collaborative Studies	N.Y.C. Lab School for Collaborative Studies	no	NYC Public	333 WEST 17 STREET	Hudson Yards-Chelsea-Flatiron-Union Square	MANHATTAN	NY	10011	104	3	MEGAN ADAMS	212-691-6119
5737437f117a5467af679750		NYC Parks Department			unsure										
57e94214d80e42d064376e14		National Science Foundation			unsure										
5737437f117a5467af679745	31R440	New Dorp High School	New World High School	New World High School	no	NYC Public	921 EAST 228TH STREET	Williamsbridge-Olinville	BRONX	NY	10466	212	12	MITHAT GASHI	718-696-3800
5737437f117a5467af679747	84X202	New Visions Charter High School For Advanced Math & Science II	New Visions Charter High School for Advanced Math and Science II	New Visions Charter High School for Advanced Math	no	Charter	900 TINTON AVENUE	Morrisania-Melrose	BRONX	NY	10456	203	17	SPIRIDOULA MANESSIS	718-665-3671
5737437f117a5467af679748		New York Academy of Sciences			unsure										
5737437f117a5467af679749		New York City Department of Education			unsure										
5737437f117a5467af67974a		New York Harbor Foundation			unsure										
5737437f117a5467af67974b		New York Restoration Project			unsure										
5a299bf91b84717c22f93fe7		New York State Department of Environmental Conservation			unsure										
589e3331911363392a0a3fa8		New York State Parks			unsure										
58a21ae2911363392a0a3ffb		New York State Parks, Recreation & Historic Preservation			unsure										
5737437f117a5467af67974c		New York University			unsure										
58791789cc0ff6e83807f8c1		Northport High School			unsure										
5989dda2d317056a6f438b1f	01M015	P. S. 15 M			unsure										
5989de51d317056a6f438b40	30Q011	P.S. 11Q	P.S. 11 Thomas Dongan School	P.S. 11 Thomas Dongan School	no	NYC Public	50 JEFFERSON STREET	Old Town-Dongan Hills-South Beach	STATEN ISLAND	NY	10304	502	50	ERICA MATTERA	718-979-1030
5834acc1e5b1443821082aee	24Q153	P.S. 153 MASPETH ELEMENTARY	P.S. 153 Adam Clayton Powell	P.S. 153 Adam Clayton Powell	no	NYC Public	1750 AMSTERDAM AVENUE	Hamilton Heights	MANHATTAN	NY	10031	109	7	KAREN BAILEY	212-927-8611
5834ac79e5b1443821082aed	27Q183	P.S. 183 DR. RICHARD R. GREEN	P.S. 183 Robert L. Stevenson	P.S. 183 Robert L. Stevenson	no	NYC Public	419 EAST 66 STREET	Lenox Hill-Roosevelt Island	MANHATTAN	NY	10065	108	5	Martin Woodard	212-734-7719
59c26d7dc9614c0f833985c0	22K207	P.S. 207 Elizabeth G. Leary	P.S. 207	P.S. 207	no	NYC Public	3030 GODWIN TERRACE	Spuyten Duyvil-Kingsbridge	BRONX	NY	10463	208	11	TARA OBRIEN	718-796-9645
58bd82c49e4a962862ed1e08	24Q229	P.S. 229 Emanual Kaplan	P.S. 229 Dyker	P.S. 229 Dyker	no	NYC Public	1400 BENSON AVENUE	Bath Beach	BROOKLYN	NY	11228	311	43	ROBERT ZAPPULLA	718-236-5447
57ebd0a7ab5be4f36908eccb	31R052	P.S. 52	P.S. 452	P.S. 452	no	NYC Public	210 WEST 61 STREET	Lincoln Square	MANHATTAN	NY	10023	107	6	David Parker	212-259-6222
58a8376c911363392a0a40d6	13K008	P.S. 8	P.S. 89	P.S. 89	no	NYC Public	201 WARREN STREET	Battery Park City-Lower Manhattan	MANHATTAN	NY	10282	101	1	VERONICA NAJJAR	212-571-5659
58bd89159e4a962862ed1e32	24Q049	P.S./I.S. 49 DOROTHY BONAWIT KOLE	P.S. 049 Dorothy Bonawit Kole	P.S. 049 Dorothy Bonawit Kole	no	NYC Public	63-60 80th Street	Middle Village	QUEENS	NY	11379	405	30	Thomas Carty	718-326-2111
59aabc00e4df103e95589327	32K045	P.S./I.S.45K			unsure										
58bee4b15d59018870f3b063	01M140	P.S./M.S. 140 NATHAN STRAUS	P.S. 140 Nathan Straus	P.S. 140 Nathan Straus	no	NYC Public	123 RIDGE STREET	Lower East Side	MANHATTAN	NY	10002	103	1	MELISSA RODRIGUEZ	212-677-4680
588fdd8758dc86ad76329e16	26Q031	P.S.31Q The Bayside School			unsure										
5a0f4f02fba5fb2ea0754567	31R045	P.S.45R John Tyler School			unsure										
589220f058dc86ad76329f48	75K369	P369K Coy L. Cox School	P.S. K369 - Coy L. Cox School	P.S. K369 - Coy L. Cox School	yes	NYC Public	383 STATE STREET	DUMBO-Vinegar Hill-Downtown Brooklyn-Boerum Hill	BROOKLYN	NY	11217	302	33	RUDY GIULIANI	718-852-1701
59aedb1efc0ece31943b88db		PNW BOCES			unsure										
5989dd71d317056a6f438b0c	27Q104	PS 104 Bayswater School	P.S. 104 The Bays Water	P.S. 104 The Bays Water	no	NYC Public	26-01 MOTT AVENUE	Far Rockaway-Bayswater	QUEENS	NY	11691	414	31	KATHLEEN GRADY	718-327-1910
5845d7e5f817d9630eb2eea8	24Q153	PS 153 Maspeth Elementary	P.S. 153 Adam Clayton Powell	P.S. 153 Adam Clayton Powell	no	NYC Public	1750 AMSTERDAM AVENUE	Hamilton Heights	MANHATTAN	NY	10031	109	7	KAREN BAILEY	212-927-8611
5a1c882c2cffe6168a41d757	03M166	PS 166	P.S. 166 The Richard Rodgers School of The Arts and Technology	P.S. 166 The Richard Rodgers School of The Arts an	no	NYC Public	132 WEST 89 STREET	Upper West Side	MANHATTAN	NY	10024	107	6	Debra Mastriano	212-678-2829
5989dddad317056a6f438b2f	29Q195	PS 195Q	P.S. 195	P.S. 195	no	NYC Public	1250 WARD AVENUE	West Farms-Bronx River	BRONX	NY	10472	209	18	Unal Karakas	718-861-4461
5996c447048efd0f93fdd477	18K276	PS 276 Louis Marshall School	P.S. 276 Louis Marshall	P.S. 276 Louis Marshall	no	NYC Public	1070 EAST 83 STREET	Canarsie	BROOKLYN	NY	11236	318	46	Yasmine Fidelia	718-241-5757
5a3138aa8330855d15a505e7	31R030	PS 30 SI The Westerleigh School			unsure										
5a3139f2c6e9f20f9162d099	31R030	PS 30 Westerleigh School	P.S. 030 Westerleigh	P.S. 030 Westerleigh	no	NYC Public	200 WARDWELL AVENUE	Westerleigh	STATEN ISLAND	NY	10314	501	50	Alan Ihne	718-442-0462
57d613a9617bf9c536f37ec1	15K032	PS 32 The Samuel Mills Sprole School in Carroll Gardens, Brooklyn			unsure										
57d43034617bf9c536f37d29	02M033	PS 33, Chelsea Prep	P.S. 033 Chelsea Prep	P.S. 033 Chelsea Prep	no	NYC Public	281 9 AVENUE	Hudson Yards-Chelsea-Flatiron-Union Square	MANHATTAN	NY	10001	104	3	Chingchien Wang	212-244-6426
59066a4d91cb1f850e448a62	31R039	PS 39 Francis J. Murphy Jr.	P.S. 39 Francis J. Murphy Jr.	P.S. 39 Francis J. Murphy Jr.	no	NYC Public	71 SAND LANE	Grasmere-Arrochar-Ft. Wadsworth	STATEN ISLAND	NY	10305	502	50	Tracey Wright	718-447-4543
5a15a45e443e2a444d5d931e	31R046	PS 46			unsure										
5a3138e78330855d15a505ee	09X063	PS 63 Author's Academy	P.S. 063 Author's Academy	P.S. 063 Author's Academy	no	NYC Public	1260 FRANKLIN AVENUE	Morrisania-Melrose	BRONX	NY	10456	203	16	REINALDO DIAZ LENS	718-589-3058
5989dea1d317056a6f438b49	20K069	PS 69	P.S. 69 Vincent D. Grippo School	P.S. 69 Vincent D. Grippo School	no	NYC Public	6302 9TH AVENUE	Sunset Park East	BROOKLYN	NY	11220	310	38	JAYNEMARIE CAPETANAKIS	718-630-3899
58b7364d1a50d18e69dd07e6	24Q087	PS 87			unsure										
59d65413d93d110f853b82a2	21K090	PS 90 EDNA COHEN SCHOOL	P.S. 90 Edna Cohen School	P.S. 90 Edna Cohen School	yes	NYC Public	2840 WEST 12 STREET	West Brighton	BROOKLYN	NY	11224	313	47	GRETA HAWKINS	718-787-3333
5834aa3ae5b1443821082ae7	24Q102	PS/IS 102			unsure										
57f7b5f27a699f1e0a48ae77	20K104	PS/IS 104			unsure										
597c88d9d4de0002ad5af924	75R025	PS/IS 25R South Richmond H.S.			unsure										
58912b4258dc86ad76329e51	29Q270	PS/IS 270	P.S./I.S. 208	P.S./I.S. 208	no	NYC Public	74-30 COMMONWEALTH BLVD	Bellerose	QUEENS	NY	11426	413	23	JAMES PHILEMY	718-468-6420
5737437f117a5467af679754	02M276	PS/IS 276 Battery Park Community School			unsure										
5737437f117a5467af679756	21K288	PS/IS 288 Shirley Tanyhill School			unsure										
5983a59a0ef47e0fda510bcd	03M076	PS/IS 76			unsure										
5983d3970ef47e0fda510c9a	03M076	PS/IS 76			unsure										
594c4505d1aa050fada88925	14K147	PS147	P.S. 147 Isaac Remsen	P.S. 147 Isaac Remsen	no	NYC Public	325 BUSHWICK AVENUE	Bushwick South	BROOKLYN	NY	11206	301	34	Sandra Noyola	718-497-0326
59538e8a5a69e70f93c1c451	14K147	PS147	P.S. 147 Isaac Remsen	P.S. 147 Isaac Remsen	no	NYC Public	325 BUSHWICK AVENUE	Bushwick South	BROOKLYN	NY	11206	301	34	Sandra Noyola	718-497-0326
58a467b0911363392a0a4085	03M208	PS208/ALLMSES	P.S. 208 Elsa Ebeling	P.S. 208 Elsa Ebeling	no	NYC Public	4801 AVENUE D	East Flatbush-Farragut	BROOKLYN	NY	11203	317	45	Nakoley Renville	718-629-1670
5a537a9c2d30ce1fe0a79089	02M003	PS3	P.S. 3 Raul Julia Micro Society	P.S. 3 Raul Julia Micro Society	no	NYC Public	2100 LAFONTAINE AVENUE	East Tremont	BRONX	NY	10457	206	15	DENISE BROWN	718-584-1899
5891e39358dc86ad76329e9f	04M072	PS72 Lexington Academy	The Lexington Academy	The Lexington Academy	no	NYC Public	131 EAST 104 STREET	East Harlem South	MANHATTAN	NY	10029	111	8	Antonio Hernandez	212-860-5831
5989dd93d317056a6f438b14	28Q080	PS80Q	PS 80 The Thurgood Marshall Magnet School of Multimedia and Communication	PS 80 The Thurgood Marshall Magnet School of Mult	no	NYC Public	171-05 137TH AVENUE	Springfield Gardens North	JAMAICA	NY	11434	412	28	Kersandra Cox	718-528-7070
5989de56d317056a6f438b43	28Q080	PS80Q	PS 80 The Thurgood Marshall Magnet School of Multimedia and Communication	PS 80 The Thurgood Marshall Magnet School of Mult	no	NYC Public	171-05 137TH AVENUE	Springfield Gardens North	JAMAICA	NY	11434	412	28	Kersandra Cox	718-528-7070
5737437f117a5467af679752		Pace University			unsure										
5a31394a8330855d15a505f8	02M298	Pace high school	Pace High School	Pace High School	no	NYC Public	100 HESTER STREET	Chinatown	MANHATTAN	NY	10002	103	1	Eric Glatz	212-334-4663
59dc0fc57ab0680f7bf8965b		Packer Collegiate Institute			unsure										
59e8d39097c577235a4958e4		Packer Collegiate Institute			unsure										
5891efbf58dc86ad76329ec5	04M372	Pelham Preparatory Academy	Esperanza Preparatory Academy	Esperanza Preparatory Academy	no	NYC Public	240 EAST 109 STREET	East Harlem South	MANHATTAN	NY	10029	111	8	Luisa Morales	212-722-6507
58f510b4e23a596b0e4e575a	32K383	Philippa Schuyler Middle School I.S. 383			unsure										
5883b5dbcc0ff6e83807f9bd		Po Kwan Ho			unsure										
5737437f117a5467af679751		Poly Prep Country Day School			unsure										
58d4106ec6f0027a0e28b930		PortSide NewYork			unsure										
58892bf5ed5ca7e34e205a0d		Portledge School			unsure										
5737437f117a5467af679755		Princess Bay Marina			unsure										
5737437f117a5467af679753		Protectors of Pine Oak Woods inc.			unsure										
58eced1fe23a596b0e4e56eb	22K326	Ps 326	P.S. 326	P.S. 326	no	NYC Public	1800 UTICA AVENUE	Flatlands	BROOKLYN	NY	11234	318	45	COLLEEN DUCEY	718-241-4828
59417d58b909c30f8011fdc6	04M108	Ps108	P.S. 108 Assemblyman Angelo Del Toro Educational Complex	P.S. 108 Assemblyman Angelo Del Toro Educational C	no	NYC Public	1615 MADISON AVENUE	East Harlem South	MANHATTAN	NY	10029	111	8	William Gladstone	212-860-5803
5885462fcc0ff6e83807f9ca	28Q310	Queens Collegiate			unsure										
5988ce859b94f0015f921272	02M422	Quest to Learn	Quest to Learn	Quest to Learn	no	NYC Public	351 WEST 18 STREET	Hudson Yards-Chelsea-Flatiron-Union Square	MANHATTAN	NY	10011	104	3	Nicholas Jurman	212-488-3645
5737437f117a5467af679757		Randalls Island Alliance			unsure										
59ccf70eaa363b0fa002cc5a	84M433	Renaissance Charter High School for Innovation	Renaissance Charter High School for Innovation	Renaissance Charter High School for Innovation	no	Charter	410 EAST 100 STREET	East Harlem South	MANHATTAN	NY	10029	111	8	Terence Joseph	212-722-5871
5737437f117a5467af679758	02M580	Richard R. Green High School of Teaching	Richard R. Green High School of Teaching	Richard R. Green High School of Teaching	no	NYC Public	7 BEAVER STREET	Battery Park City-Lower Manhattan	MANHATTAN	NY	10004	101	1	Joan Weaver	646-826-8174
5737437f117a5467af679759		Richmond County Yacht Club			unsure										
59b05a252a8c047c0dcffe4e	23K446	Riverdale Country School	Riverdale Avenue Community School	Riverdale Avenue Community School	no	NYC Public	76 RIVERDALE AVENUE	Brownsville	BROOKLYN	NY	11212	316	42	Meghan Dunn	718-485-1679
5737437f117a5467af67975a		Riverdale Yacht Club			unsure										
5737437f117a5467af67975b		Riverside Park Trust			unsure										
5737437f117a5467af67975f		Rockaway Beach Nonprofits (Arts n Parts, Edgemere)			unsure										
5737437f117a5467af67975d		Rockaway Waterfront Alliance			unsure										
59c96501e3e6892d8be663b1		Rocking the Boat			unsure										
5737437f117a5467af67975c	08X071	Rose E. Scala P.S.071			unsure										
5737437f117a5467af67975e		Rye City School District			unsure										
5737437f117a5467af67976c		SUNY Maritime			unsure										
59f230a375b9ac0fa5316832		Sarah Lawrence College Center for the Urban River at Beczak			unsure										
59a7a4913443040f91f48f0a		School of the Blessed Sacrament			unsure										
587fd425cc0ff6e83807f98d	02M413	School of the Future (M413)			unsure										
5989dd80d317056a6f438b0f	19K663	School of the Future Brooklyn 19k663	School of the Future Brooklyn	School of the Future Brooklyn	no	NYC Public	574 DUMONT AVENUE	East New York (Pennsylvania Ave)	BROOKLYN	NY	11207	305	42	Sarah Kaufmann	718-345-5190
5737437f117a5467af679760		Sebago Canoe Club			unsure										
589a085de417aa3a7b906927		Seconsett Island Society			unsure										
5737437f117a5467af679761		Sleepy Hollow Middle School			unsure										
58363668e5b1443821082b67		SmartStart Evaluation & Research			unsure										
5737437f117a5467af679762		Solar One			unsure										
5737437f117a5467af679763	08X448	Sound view Academy-08X448			unsure										
58cc1857e36210700e1c2678	07X221	South Bronx Preparatory			unsure										
5737437f117a5467af679764		South Street Seaport Museum			unsure										
5737437f117a5467af679765		Spence School			unsure										
5737437f117a5467af679768		St. Clare's School			unsure										
598860ce9b94f0015f920e7b		St. John Villa Academy			unsure										
57523100cedba248041998b8		Staten Island Homeschoolers			unsure										
5737437f117a5467af679766		Staten Island Museum			unsure										
5737437f117a5467af679767		Statue Cruises			unsure										
5737437f117a5467af679769	02M475	Stuyvesant High School	Stuyvesant High School	Stuyvesant High School	no	NYC Public	345 CHAMBERS STREET	Battery Park City-Lower Manhattan	MANHATTAN	NY	10282	101	1	Eric Contreras	212-312-4800
5737437f117a5467af67976a	84K730	Summit Academy			unsure										
57f7b48819cc1edc3249efb7	15K667	Sunset Park High School	Sunset Park High School	Sunset Park High School	yes	NYC Public	153 35TH STREET	Sunset Park West	BROOKLYN	NY	11232	307	38	Victoria Antonini	718-840-1900
5737437f117a5467af67976b	15K821	Sunset Park Prep - MS 821	Sunset Park Prep	Sunset Park Prep	yes	NYC Public	4004 4 AVENUE	Sunset Park West	BROOKLYN	NY	11232	307	38	Jennifer Spalding	718-840-1951
587506d9195c49c15ebeed9b	30Q300	The 30th Avenue School			unsure										
591b44cf56bdda430eabb641	32K552	The Academy of Urban Planning			unsure										
5737437f117a5467af67976d		The Battery Conservancy, Battery Urban Farm			unsure										
5737437f117a5467af67976e		The Beacon School			unsure										
5737437f117a5467af67976f		The Berkeley Carroll School			unsure										
59b1b2b02a8c047c0dd007bc		The Brotherhood/Sister Sol			unsure										
5a15aded443e2a444d5db391	03M243	The Center School MS 243			unsure										
57e979cbd80e42d064376e35		The Chapin School			unsure										
595eb251b031c81e6e3bdab4	01M364	The Earth School	Earth School	Earth School	no	NYC Public	600 EAST 6 STREET	Lower East Side	MANHATTAN	NY	10009	103	2	ABBE FUTTERMAN	212-477-1735
5899dcf5ff144b7d6e443bda		The East Harlem School			unsure										
58b074c50b2debf867885fd2		The Friends of Governors Island			unsure										
5737437f117a5467af67971d	31R059	The Harbor View School - PS 59 (31R059)			unsure										
57652fbfe7ff550537f2d6d7		The Hewitt School			unsure										
5737437f117a5467af679770	10X342	The International School for Liberal Arts MS/HS 342	International School for Liberal Arts	International School for Liberal Arts	yes	NYC Public	2780 RESERVOIR AVENUE	Van Cortlandt Village	BRONX	NY	10468	207	11	Francine Cruz	718-329-8570
58e3a3c3ec3f74820e7375a7	02M459	The Manhattan International High School	Manhattan International High School	Manhattan International High School	yes	NYC Public	317 EAST 67 STREET	Lenox Hill-Roosevelt Island	MANHATTAN	NY	10065	108	5	Gladys Rodriguez	212-517-6728
58b48381fc2ba0e063cbbf7f	28Q287	The Masters School	The Emerson School	The Emerson School	no	NYC Public	108-35 167 STREET	South Jamaica	QUEENS	NY	11433	412	27	Jakub Lau	718-657-4801
5899c255ff144b7d6e443bc5		The New School	The Cinema School	The Cinema School	no	NYC Public	1551 EAST 172ND STREET	West Farms-Bronx River	BRONX	NY	10472	209	18	Keisha Warner	718-620-2560
59e8d2b397c577235a4958dc		The Packer Collegiate Institute			unsure										
5737437f117a5467af679772		The River Project			unsure										
57dac50f5d182ae461b49a71		The Waldorf School of Garden City			unsure										
57f7bd7f7a699f1e0a48aeba		The WaterFront Center			unsure										
58dbe17ec6f0027a0e28bbf3		The Wright Family			unsure										
58f64845e23a596b0e4e577b		The Wright Family			unsure										
5737437f117a5467af679774	30Q286	The Young Women's Leadership School of Astoria	Young Women's Leadership School, Astoria	Young Women's Leadership School, Astoria	yes	NYC Public	23-15 NEWTOWN AVENUE	Old Astoria	QUEENS	NY	11102	401	22	Allison Persad	718-267-2839
5891e5ea58dc86ad76329ea2	14K614	The Young Women's Leadership School of Brooklyn	Young Women's Leadership School of Brooklyn	Young Women's Leadership School of Brooklyn	yes	NYC Public	325 BUSHWICK AVENUE	Bushwick South	BROOKLYN	NY	11206	301	34	Catherine Mitchell	718-387-5641
5737437f117a5467af679771		Tottenville Marina			unsure										
5a046fd66257c00f982fbee0		Trevor Day School			unsure										
59024c972272257a0e858c21		Trilok Fusion Arts			unsure										
58eab8bfe23a596b0e4e566d		Trinity School			unsure										
5722befed3444e216c62bcc1		Unaffiliated/None			unsure										
57f7b4b719cc1edc3249efbf		Uncommon Collegiate Charter High School			unsure										
5737437f117a5467af679773		University of Maryland, Center for Environmental Science			unsure										
5737437f117a5467af679775	02M551	Urban Assembly New York Harbor School	Urban Assembly New York Harbor School	Urban Assembly New York Harbor School	no	NYC Public	10 SOUTH STREET, SLIP 7	park-cemetery-etc-Manhattan	MANHATTAN	NY	10004	101	1	JEFFREY CHETIRKO	212-458-0800
5737437f117a5467af679776	12X372	Urban Assembly School for Wildlife Conservation	Urban Assembly School for Wildlife Conservation	Urban Assembly School for Wildlife Conservation	no	NYC Public	2024 MOHEGAN AVENUE	East Tremont	BRONX	NY	10460	206	17	Frank Giaimo	718-823-4130
5a3138898330855d15a505e2	02M449	Vanguard High School	Vanguard High School	Vanguard High School	no	NYC Public	317 EAST 67 STREET	Lenox Hill-Roosevelt Island	MANHATTAN	NY	10065	108	5	WILLIAM KLANN	212-517-5175
58b050900b2debf867885fc7		Vaughn College of Aeronautics and Tech			unsure										
5898cb5658dc86ad7632a02d		Villa Maria Academy			unsure										
5991daad5b05d00f9bb87d43	19K660	WH Maxwell			unsure										
5a3403c8e462b066fe175051	03M415	Wadleigh Secondary School for the Perforing and Visual Arts	Wadleigh Secondary School for the Performing & Visual Arts	Wadleigh Secondary School for the Performing & Vis	no	NYC Public	215 WEST 114 STREET	Central Harlem South	MANHATTAN	NY	10026	110	9	Daisy Fontanez	212-749-5800
592392019d63f5690ec0b7ca		Wantagh Schools			unsure										
5737437f117a5467af679777		Warby Parker			unsure										
58bd91199e4a962862ed1e54	06M348	Washington Heights Expeditionary Learning School (WHEELS)	Washington Heights Expeditionary Learning School	Washington Heights Expeditionary Learning School	no	NYC Public	511 WEST 182ND STREET	Washington Heights North	MANHATTAN	NY	10033	112	10	Thomas Rochowicz	212-781-0524
5737437f117a5467af679778	03M291	West End Secondary School	West End Secondary School	West End Secondary School	no	NYC Public	227-243 WEST 61ST STREET	Lincoln Square	MANHATTAN	NY	10023	107	6	JESSICA JENKINS	212-245-1506
5737437f117a5467af679779		Wildlife Conservation Society, New York Aquarium			unsure										
57d4270b617bf9c536f37cac	14K561	Williamsburg Preparatory High School	Williamsburg Preparatory School	Williamsburg Preparatory School	yes	NYC Public	257 NORTH 6 STREET	North Side-South Side	BROOKLYN	NY	11211	301	33	Michael Shadrick	718-302-2306
57d430ff617bf9c536f37d2d		Winston PReparatory School NY			unsure										
59e8ded097c577235a4958ec	10X353	World View High School	World View High School	World View High School	yes	NYC Public	100 WEST MOSHOLU PARKWAY SOUTH	Van Cortlandt Village	BRONX	NY	10468	207	11	Martin Hernandez	718-601-0391
58d7db39c6f0027a0e28ba66		Xaverian High School			unsure										
5737437f117a5467af67977a	31R455	YABC @ Tottenville High School	Tottenville High School	Tottenville High School	no	NYC Public	100 LUTEN AVENUE	Annadale-Huguenot-Prince's Bay-Eltingville	STATEN ISLAND	NY	10312	503	51	Joseph Scarmato	718-668-8800
5737437f117a5467af67977b		YMCA Off-Site: Julia Richman Educational Complex Site Director, Teen Program			unsure										
57f7bdb17a699f1e0a48aebc		Youth Arts New York			unsure										